IRIDIUM 136             
1 42962U 17061H   24029.72850496  .00000013  00000+0 -22912-5 0  9991
2 42962  86.3961  28.5864 0002308  83.9071 276.2388 14.34218296330217
